{
    "links": {
        "self": "http://www.neowsapp.com/rest/v1/neo/54087803?api_key=iIulBulltgU6a56xZRHN4H3l9WmuAYTsLGpBGhQ2"
    },
    "id": "54087803",
    "neo_reference_id": "54087803",
    "name": "(2020 VM4)",
    "designation": "2020 VM4",
    "nasa_jpl_url": "http://ssd.jpl.nasa.gov/sbdb.cgi?sstr=54087803",
    "absolute_magnitude_h": 25.785,
    "estimated_diameter": {
        "kilometers": {
            "estimated_diameter_min": 0.0185163327,
            "estimated_diameter_max": 0.0414037787
        },
        "meters": {
            "estimated_diameter_min": 18.5163327451,
            "estimated_diameter_max": 41.403778712
        },
        "miles": {
            "estimated_diameter_min": 0.0115055122,
            "estimated_diameter_max": 0.0257271074
        },
        "feet": {
            "estimated_diameter_min": 60.7491251233,
            "estimated_diameter_max": 135.8391733494
        }
    },
    "is_potentially_hazardous_asteroid": false,
    "close_approach_data": [
        {
            "close_approach_date": "2020-11-07",
            "close_approach_date_full": "2020-Nov-07 22:28",
            "epoch_date_close_approach": 1604788080000,
            "relative_velocity": {
                "kilometers_per_second": "7.1219510345",
                "kilometers_per_hour": "25639.023724311",
                "miles_per_hour": "15931.092269142"
            },
            "miss_distance": {
                "astronomical": "0.0379189633",
                "lunar": "14.7504767237",
                "kilometers": "5672596.142288171",
                "miles": "3524787.7962359198"
            },
            "orbiting_body": "Earth"
        }
    ],
    "orbital_data": {
        "orbit_id": "6",
        "orbit_determination_date": "2020-11-23 05:21:49",
        "first_observation_date": "2020-11-12",
        "last_observation_date": "2020-11-23",
        "data_arc_in_days": 11,
        "observations_used": 35,
        "orbit_uncertainty": "8",
        "minimum_orbit_intersection": ".0369518",
        "jupiter_tisserand_invariant": "4.453",
        "epoch_osculation": "2459168.5",
        "eccentricity": ".3276871730656284",
        "semi_major_axis": "1.507517449145958",
        "inclination": "10.07095502578912",
        "ascending_node_longitude": "232.0197702325744",
        "orbital_period": "676.0704412881886",
        "perihelion_distance": "1.013523317888212",
        "perihelion_argument": "158.3778407644229",
        "aphelion_distance": "2.001511580403704",
        "perihelion_time": "2459147.256221589188",
        "mean_anomaly": "11.31207602172376",
        "mean_motion": ".532488891710831",
        "equinox": "J2000",
        "orbit_class": {
            "orbit_class_type": "APO",
            "orbit_class_description": "Near-Earth asteroid orbits which cross the Earth’s orbit similar to that of 1862 Apollo",
            "orbit_class_range": "a (semi-major axis) > 1.0 AU; q (perihelion) < 1.017 AU"
        }
    },
    "is_sentry_object": false
}